MEAN_MOTION;ECCENTRICITY;INCLINATION;RA_OF_ASC_NODE;ARG_OF_PERICENTER;MEAN_ANOMALY;BSTAR;MEAN_MOTION_DOT;MEAN_MOTION_DDOT;TYPE
15.0619101;0.0161496;101.7144;284.2923;347.5263;12.1973;5.9703E-5;1.011E-5;0;Amateur
15.06192232;0.0161496;101.7143;285.2987;345.5558;14.1066;5.6198E-5;9.41E-6;0;Amateur
15.06193182;0.0161492;101.7143;285.802;344.572;15.0601;5.663E-5;9.5E-6;0;Amateur
15.06195936;0.016149;101.7142;287.3117;341.6181;17.9237;5.7196E-5;9.61E-6;0;Amateur
15.06197605;0.016149;101.7141;288.3182;339.6482;19.8341;5.6696E-5;9.51E-6;0;Amateur
15.06198817;0.0161483;101.7141;288.9221;338.4682;20.979;5.7561E-5;9.68E-6;0;Amateur
15.06199119;0.0161482;101.7141;289.1234;338.0745;21.3609;5.6929E-5;9.55E-6;0;Amateur
15.06199898;0.0161481;101.714;289.9285;336.4973;22.8916;5.2802E-5;8.74E-6;0;Amateur
15.0620207;0.0161469;101.7139;291.4382;333.5421;25.7612;5.0413E-5;8.27E-6;0;Amateur
15.06204697;0.0161444;101.7137;293.3505;329.7986;29.3994;4.9867E-5;8.16E-6;0;Amateur
15.06206229;0.0161431;101.7136;294.4576;327.6296;31.509;5.2096E-5;8.6E-6;0;Amateur
15.06207943;0.0161415;101.7136;295.3634;325.8554;33.2358;5.7126E-5;9.59E-6;0;Amateur
15.06207235;0.0161416;101.7135;295.9673;324.6715;34.3884;4.4819E-5;7.16E-6;0;Amateur
15.06209191;0.0161399;101.7134;297.3763;321.9089;37.08;4.9288E-5;8.04E-6;0;Amateur
15.06212242;0.0161379;101.7133;298.9866;318.7505;40.1604;6.1881E-5;1.053E-5;0;Amateur
15.06212849;0.0161371;101.7133;299.3891;317.9609;40.9312;6.3038E-5;1.075E-5;0;Amateur
15.06214531;0.0161361;101.7132;300.9994;314.8094;44.0093;6.0647E-5;1.028E-5;0;Amateur
15.06214689;0.0161361;101.7132;301.1001;314.6132;44.201;6.0682E-5;1.029E-5;0;Amateur
15.06216216;0.0161357;101.7132;302.0058;312.8389;45.9358;6.3006E-5;1.075E-5;0;Amateur
15.06216942;0.0161349;101.7132;302.6097;311.6554;47.0937;6.1281E-5;1.041E-5;0;Amateur
15.06217427;0.0161344;101.7132;303.0122;310.8667;47.8656;6.0609E-5;1.027E-5;0;Amateur
15.06218165;0.0161342;101.7131;303.5154;309.8798;48.8319;5.9998E-5;1.015E-5;0;Amateur
15.06219155;0.0161335;101.7132;304.1193;308.6978;49.9897;5.9137E-5;9.98E-6;0;Amateur
15.06220239;0.0161333;101.7131;305.025;306.9248;51.7276;5.5744E-5;9.31E-6;0;Amateur
15.06220628;0.0161327;101.7131;305.6288;305.7425;52.8873;5.0758E-5;8.32E-6;0;Amateur
15.06221878;0.0161317;101.713;307.0378;302.9835;55.5959;4.3063E-5;6.8E-6;0;Amateur
15.06221991;0.0161315;101.713;307.1384;302.7864;55.7895;4.2703E-5;6.73E-6;0;Amateur
15.06223914;0.01613;101.7128;308.648;299.8306;58.6955;4.0892E-5;6.37E-6;0;Amateur
15.06224594;0.0161296;101.7128;309.0505;299.0424;59.4711;4.2473E-5;6.69E-6;0;Amateur
15.06226101;0.0161284;101.7127;310.1576;296.8748;61.6057;4.2566E-5;6.7E-6;0;Amateur
15.06227053;0.0161278;101.7125;311.0633;295.1007;63.3544;4.2425E-5;6.68E-6;0;Amateur
15.06227211;0.0161277;101.7125;311.164;294.9038;63.5486;4.2626E-5;6.72E-6;0;Amateur
15.06230083;0.0161248;101.7123;313.0761;291.1548;67.2497;4.8955E-5;7.97E-6;0;Amateur
15.06231938;0.0161237;101.7121;314.1831;288.9841;69.396;5.4755E-5;9.11E-6;0;Amateur
15.06233503;0.0161224;101.7121;314.8875;287.601;70.7649;6.036E-5;1.022E-5;0;Amateur
15.06235132;0.0161219;101.7119;315.6926;286.022;72.3288;6.631E-5;1.14E-5;0;Amateur
15.06236879;0.0161206;101.7119;316.5983;284.2427;74.0928;7.0295E-5;1.218E-5;0;Amateur
15.0623792;0.0161203;101.7118;317.2022;283.0576;75.2685;7.2311E-5;1.258E-5;0;Amateur
15.062413;0.0161185;101.7116;319.1142;279.3025;78.9992;7.4382E-5;1.299E-5;0;Amateur
15.0624405;0.0161171;101.7115;320.6236;276.3398;81.9481;7.2173E-5;1.256E-5;0;Amateur
15.06245182;0.0161167;101.7115;321.1267;275.3577;82.9267;7.2326E-5;1.259E-5;0;Amateur
15.06248055;0.0161159;101.7113;322.133;273.3896;84.8893;7.7743E-5;1.366E-5;0;Amateur
15.06249635;0.0161149;101.7113;322.7368;272.2026;86.0742;7.9214E-5;1.395E-5;0;Amateur
15.06254257;0.0161133;101.7112;324.3468;269.0481;89.2267;8.425E-5;1.495E-5;0;Amateur
15.06255707;0.0161126;101.7111;325.2525;267.2688;91.0073;7.7204E-5;1.355E-5;0;Amateur
15.06257677;0.0161119;101.711;326.2587;265.2974;92.9822;7.3593E-5;1.284E-5;0;Amateur
15.06258571;0.0161113;101.711;326.7618;264.3096;93.9727;7.0926E-5;1.231E-5;0;Amateur
15.0626044;0.0161105;101.7109;327.8687;262.139;96.1509;6.5647E-5;1.127E-5;0;Amateur
15.06260847;0.0161098;101.7109;328.2712;261.348;96.9453;6.1965E-5;1.054E-5;0;Amateur
15.06262789;0.0161088;101.7109;329.7806;258.3879;99.9214;5.3775E-5;8.92E-6;0;Amateur
15.06263662;0.0161082;101.7108;330.2837;257.4008;100.9149;5.3749E-5;8.92E-6;0;Amateur
15.06265304;0.0161075;101.7107;331.2899;255.4252;102.905;5.348E-5;8.87E-6;0;Amateur
15.06266205;0.0161068;101.7105;332.2962;253.4522;104.8945;4.8899E-5;7.96E-6;0;Amateur
15.06267098;0.0161059;101.7105;332.7993;252.4648;105.891;5.0604E-5;8.3E-6;0;Amateur
15.06269246;0.016105;101.7103;334.3087;249.5006;108.8857;5.3063E-5;8.79E-6;0;Amateur
15.06271173;0.0161043;101.7101;335.4155;247.3278;111.0838;5.8277E-5;9.82E-6;0;Amateur
15.06272855;0.0161039;101.71;336.321;245.547;112.8871;6.2348E-5;1.062E-5;0;Amateur
15.0627466;0.0161041;101.7099;337.3272;243.572;114.889;6.6325E-5;1.141E-5;0;Amateur
15.06276312;0.0161044;101.7098;338.3333;241.5977;116.8921;6.7744E-5;1.169E-5;0;Amateur
15.06276259;0.0161044;101.7097;338.434;241.3999;117.093;6.6167E-5;1.138E-5;0;Amateur
15.06278474;0.016105;101.7095;339.9432;238.4363;120.1039;6.4046E-5;1.096E-5;0;Amateur
15.06279246;0.016105;101.7095;340.4462;237.4489;121.108;6.2972E-5;1.075E-5;0;Amateur
15.0628142;0.0161052;101.7093;341.8548;234.6857;123.9206;5.9752E-5;1.012E-5;0;Amateur
15.0628167;0.0161051;101.7093;341.9554;234.4874;124.1226;6.0098E-5;1.019E-5;0;Amateur
15.06282969;0.0161051;101.7091;342.9614;232.5167;126.131;5.5712E-5;9.32E-6;0;Amateur
15.0628374;0.0161046;101.7091;343.4645;231.5301;127.1371;5.4029E-5;8.99E-6;0;Amateur
15.06285473;0.0161041;101.709;343.9675;230.5449;128.1422;6.06E-5;1.029E-5;0;Amateur
15.06286065;0.0161044;101.709;344.3699;229.7566;128.9467;5.9068E-5;9.99E-6;0;Amateur
15.0628619;0.0161042;101.7089;344.9736;228.5717;130.1565;5.1746E-5;8.54E-6;0;Amateur
15.06286641;0.0161038;101.7089;345.5771;227.3872;131.3666;4.7459E-5;7.69E-6;0;Amateur
15.06287255;0.016104;101.7088;345.9796;226.5995;132.1716;4.6784E-5;7.56E-6;0;Amateur
15.06287708;0.0161029;101.7088;346.4827;225.6131;133.1801;4.4162E-5;7.04E-6;0;Amateur
15.0628813;0.0161026;101.7087;347.4887;223.6425;135.196;3.6671E-5;5.56E-6;0;Amateur
15.06288581;0.0161023;101.7087;347.9917;222.6542;136.2076;3.5183E-5;5.26E-6;0;Amateur
15.06288863;0.0161022;101.7087;349.0983;220.4862;138.428;2.7567E-5;3.76E-6;0;Amateur
15.06290337;0.0161015;101.7087;349.5007;219.6938;139.24;3.7023E-5;5.63E-6;0;Amateur
15.0629216;0.0161013;101.7086;351.0099;216.73;142.2792;4.173E-5;6.56E-6;0;Amateur
15.0629276;0.0161014;101.7086;351.5129;215.7417;143.2933;4.3563E-5;6.92E-6;0;Amateur
15.06293671;0.016102;101.7086;352.519;213.765;145.3225;4.5392E-5;7.29E-6;0;Amateur
15.06294856;0.0161018;101.7084;353.525;211.7926;147.3488;4.9462E-5;8.09E-6;0;Amateur
15.06294918;0.0161017;101.7084;353.6256;211.5952;147.5516;4.9383E-5;8.08E-6;0;Amateur
15.06297093;0.0161024;101.7082;355.1347;208.627;150.6031;5.746E-5;9.68E-6;0;Amateur
15.06297775;0.016103;101.7082;355.5371;207.836;151.4167;5.9897E-5;1.016E-5;0;Amateur
15.06300032;0.0161038;101.708;356.6437;205.6666;153.649;6.7639E-5;1.17E-5;0;Amateur
15.06300276;0.0161043;101.708;357.0461;204.8763;154.4625;6.5802E-5;1.134E-5;0;Amateur
15.06301062;0.0161046;101.7079;357.5491;203.8887;155.4794;6.6376E-5;1.145E-5;0;Amateur
15.06301929;0.0161046;101.7078;358.1527;202.7069;156.6964;6.6262E-5;1.143E-5;0;Amateur
15.06302535;0.016105;101.7078;358.555;201.9173;157.5098;6.5964E-5;1.137E-5;0;Amateur
15.06304527;0.0161052;101.7076;359.561;199.9463;159.5407;6.793E-5;1.176E-5;0;Amateur
15.06304573;0.0161052;101.7076;359.6616;199.7491;159.7439;6.6596E-5;1.15E-5;0;Amateur
15.06305493;0.0161051;101.7076;0.064;198.9605;160.5568;6.8008E-5;1.178E-5;0;Amateur
15.06307113;0.0161055;101.7073;1.5729;196.0048;163.6042;5.6102E-5;9.42E-6;0;Amateur
15.06308807;0.0161052;101.7071;2.6794;193.8372;165.84;5.0794E-5;8.37E-6;0;Amateur
15.0631045;0.016105;101.7071;3.4841;192.2581;167.4693;5.0237E-5;8.26E-6;0;Amateur
15.06311638;0.016105;101.7069;4.1882;190.88;168.8914;4.8566E-5;7.93E-6;0;Amateur
15.0631246;0.0161049;101.7069;5.0935;189.1036;170.7247;4.0686E-5;6.38E-6;0;Amateur
15.06314094;0.0161043;101.7067;6.7028;185.9457;173.9847;3.3142E-5;4.88E-6;0;Amateur
15.06315513;0.0161038;101.7066;7.3063;184.7632;175.2056;3.8574E-5;5.96E-6;0;Amateur
15.06316782;0.0161033;101.7064;8.7145;182.0002;178.0586;3.5545E-5;5.36E-6;0;Amateur
15.06317319;0.0161034;101.7064;9.2174;181.0111;179.0799;3.5676E-5;5.39E-6;0;Amateur
15.06319285;0.0161027;101.7063;10.2232;179.0385;181.1168;4.339E-5;6.92E-6;0;Amateur
15.06319465;0.0161029;101.7063;10.3238;178.841;181.3207;4.3959E-5;7.03E-6;0;Amateur
15.0632192;0.0161026;101.7063;10.7262;178.0496;182.138;6.0679E-5;1.034E-5;0;Amateur
15.06324475;0.0161025;101.7063;11.732;176.0764;184.1753;7.2392E-5;1.266E-5;0;Amateur
15.06323512;0.0161039;101.7063;12.2348;175.0889;185.195;5.8632E-5;9.94E-6;0;Amateur
15.06324168;0.016104;101.7063;12.6372;174.2994;186.0101;5.9864E-5;1.018E-5;0;Amateur
15.0632555;0.0161035;101.7062;13.3412;172.9194;187.4347;6.4216E-5;1.105E-5;0;Amateur
15.06327368;0.0161036;101.7061;14.1459;171.3395;189.0656;6.9326E-5;1.206E-5;0;Amateur
15.06333908;0.0161012;101.706;15.7551;168.1827;192.3236;9.917E-5;1.798E-5;0;Amateur
15.0633465;0.0161016;101.706;16.7608;166.2134;194.3554;8.6657E-5;1.55E-5;0;Amateur
15.0633614;0.0161031;101.7059;17.2638;165.2265;195.3735;8.9483E-5;1.606E-5;0;Amateur
15.06340333;0.0161041;101.7058;18.6719;162.4694;198.2167;9.5562E-5;1.727E-5;0;Amateur
15.06340742;0.016104;101.7056;19.7783;160.3017;200.4512;7.4705E-5;1.314E-5;0;Amateur
15.06341416;0.0161047;101.7056;20.2812;159.3147;201.4684;6.9323E-5;1.207E-5;0;Amateur
15.06343255;0.0161035;101.7054;21.2868;157.3444;203.4981;6.3442E-5;1.091E-5;0;Amateur
15.06344418;0.0161027;101.7053;22.192;155.5701;205.3252;5.4528E-5;9.14E-6;0;Amateur
